              TDR Cartesian                         TDR Cartesian  
    -----------------------------------       --------------------------------
     X    =        9042156.87                 X    =         2756049.41
     Y    =      -10460645.80  feet           Y    =        -3188404.84  meter
     Z    =      -17455299.44                 Z    =        -5320375.27
     XDOT =      18073.921613                 XDOT =        5508.931308
     YDOT =      15962.860841  feet/sec       YDOT =        4865.479984  meter/sec
     ZDOT =       -195.753160                 ZDOT =         -59.665563
  
  
    The mean element set is posted at the UTC for which position is
    just north of the next ascending node relative to the above
    vector time
 
 
    TWO LINE MEAN ELEMENT SET
  
    ISS
    1 25544U 98067A   16091.61029205  .00016717  00000-0  10270-3 0  9100
    2 25544  51.6397  84.9581 0002540  11.3013 348.8197 15.54280291 32910
  
  
    Satellite: ISS
    Catalog Number: 25544
    Epoch time:      16091.61029205   =   yrday.fracday
    Element set:     910
    Inclination:       51.6397  deg
    RA of node:        84.9581  deg
    Eccentricity:     .0002540     
    Arg of perigee:    11.3013  deg
    Mean anomaly:     348.8197  deg
    Mean motion:   15.54280291  rev/day
    Decay rate:    1.67170E-04  rev/day^2
    Epoch rev:            3291
    Checksum:              294
 
 
    Coasting Arc #12 (Orbit 3292)
    ---------------------------------------
 
    Vector Time (GMT): 2016/091/16:23:58.000
    Vector Time (MET): N/A
    Weight (LBS)     : 901911.1
 
              M50 Cartesian                         M50 Keplerian  
    -----------------------------------       --------------------------------
     X    =       -2641346.67                 A    =         6782044.73  meter
     Y    =        4771601.30  meter          E    =           .0011181
     Z    =        4021403.89                 I    =           52.00514
     XDOT =      -3711.591800                 Wp   =           88.20586
     YDOT =      -5412.572425  meter/sec      RA   =           83.79927  deg
     ZDOT =       3975.280586                 TA   =          320.65040
                                              MA   =          320.73158
                                              Ha   =            221.214  n.mi
                                              Hp   =            214.179
 
              M50 Cartesian                         J2K Cartesian  
    -----------------------------------       --------------------------------
     X    =       -8665835.54                 X    =        -2714041.87
     Y    =       15654859.92  feet           Y    =         4741657.89  meter
     Z    =       13193582.32                 Z    =         4008395.90
     XDOT =     -12177.138450                 XDOT =       -3670.101441
     YDOT =     -17757.783545  feet/sec       YDOT =       -5453.845589  meter/sec
     ZDOT =      13042.259139                 ZDOT =        3957.351813
 
              TDR Cartesian                         TDR Cartesian  
    -----------------------------------       --------------------------------
     X    =       12773594.08                 X    =         3893391.48
     Y    =       12590386.71  feet           Y    =         3837549.87  meter
     Z    =       13136187.27                 Z    =         4003909.88
     XDOT =     -19454.951961                 XDOT =       -5929.869358
     YDOT =       6179.215559  feet/sec       YDOT =        1883.424902  meter/sec
     ZDOT =      12965.294052                 ZDOT =        3951.821627
  
  
    The mean element set is posted at the UTC for which position is
    just north of the next ascending node relative to the above
    vector time
 
 
    TWO LINE MEAN ELEMENT SET
  
    ISS
    1 25544U 98067A   16091.73888306  .00016717  00000-0  10270-3 0  9119
    2 25544  51.6411  84.3179 0002516  12.2852 347.8362 15.54292442 32934
  
  
    Satellite: ISS
    Catalog Number: 25544
    Epoch time:      16091.73888306   =   yrday.fracday
    Element set:     911
    Inclination:       51.6411  deg
    RA of node:        84.3179  deg
    Eccentricity:     .0002516     
    Arg of perigee:    12.2852  deg
    Mean anomaly:     347.8362  deg
    Mean motion:   15.54292442  rev/day
    Decay rate:    1.67170E-04  rev/day^2
    Epoch rev:            3293
    Checksum:              307
 
 
    Coasting Arc #13 (Orbit 3307)
    ---------------------------------------
 
    Vector Time (GMT): 2016/092/16:23:58.000
    Vector Time (MET): N/A
    Weight (LBS)     : 901911.1
 
              M50 Cartesian                         M50 Keplerian  
    -----------------------------------       --------------------------------
     X    =        3312159.17                 A    =         6778472.88  meter
     Y    =       -3239869.61  meter          E    =           .0013802
     Z    =       -4960564.14                 I    =           51.98989
     XDOT =       3104.659037                 Wp   =           64.37387
     YDOT =       6627.245681  meter/sec      RA   =           78.83041  deg
     ZDOT =      -2254.517080                 TA   =          183.67954
                                              MA   =          183.68970
                                              Ha   =            221.142  n.mi
                                              Hp   =            214.188
 
              M50 Cartesian                         J2K Cartesian  
    -----------------------------------       --------------------------------
     X    =       10866663.95                 X    =         3372238.30
     Y    =      -10629493.46  feet           Y    =        -3202495.36  meter
     Z    =      -16274816.74                 Z    =        -4944328.31
     XDOT =      10185.889229                 XDOT =        3041.272246
     YDOT =      21742.932024  feet/sec       YDOT =        6661.609425  meter/sec
     ZDOT =      -7396.709581                 ZDOT =       -2239.589987
 
              TDR Cartesian                         TDR Cartesian  
    -----------------------------------       --------------------------------
     X    =       -7568834.80                 X    =        -2306980.85
     Y    =      -13270056.91  feet           Y    =        -4044713.34  meter
     Z    =      -16203657.19                 Z    =        -4938874.71
     XDOT =      22636.341837                 XDOT =        6899.556992
     YDOT =      -3953.215878  feet/sec       YDOT =       -1204.940200  meter/sec
     ZDOT =      -7333.017795                 ZDOT =       -2235.103824
  
  
    The mean element set is posted at the UTC for which position is
    just north of the next ascending node relative to the above
    vector time
 
 
    TWO LINE MEAN ELEMENT SET
  
    ISS
    1 25544U 98067A   16092.70331113  .00016717  00000-0  10270-3 0  9127
    2 25544  51.6420  79.5092 0002588  15.1045 345.0184 15.54314039 33085
  
  
    Satellite: ISS
    Catalog Number: 25544
    Epoch time:      16092.70331113   =   yrday.fracday
    Element set:     912
    Inclination:       51.6420  deg
    RA of node:        79.5092  deg
    Eccentricity:     .0002588     
    Arg of perigee:    15.1045  deg
    Mean anomaly:     345.0184  deg
    Mean motion:   15.54314039  rev/day
    Decay rate:    1.67170E-04  rev/day^2
    Epoch rev:            3308
    Checksum:              276
 
 
    Coasting Arc #14 (Orbit 3323)
    ---------------------------------------
 
    Vector Time (GMT): 2016/093/16:23:58.000
    Vector Time (MET): N/A
    Weight (LBS)     : 901911.1
 
              M50 Cartesian                         M50 Keplerian  
    -----------------------------------       --------------------------------
     X    =       -3913018.93                 A    =         6776739.02  meter
     Y    =        1472345.84  meter          E    =           .0003659
     Z    =        5330591.01                 I    =           51.97732
     XDOT =      -2350.248082                 Wp   =           58.51302
     YDOT =      -7297.108343  meter/sec      RA   =           73.85389  deg
     ZDOT =        291.982707                 TA   =           28.72787
                                              MA   =           28.70772
                                              Ha   =            221.236  n.mi
                                              Hp   =            214.033
 
              M50 Cartesian                         J2K Cartesian  
    -----------------------------------       --------------------------------
     X    =      -12837988.62                 X    =        -3955085.91
     Y    =        4830530.99  feet           Y    =         1428353.18  meter
     Z    =       17488815.67                 Z    =         5311480.27
     XDOT =      -7710.787670                 XDOT =       -2269.893648
     YDOT =     -23940.644169  feet/sec       YDOT =       -7322.941062  meter/sec
     ZDOT =        957.948513                 ZDOT =         280.761712
 
              TDR Cartesian                         TDR Cartesian  
    -----------------------------------       --------------------------------
     X    =        1696205.36                 X    =          517003.39
     Y    =       13717835.33  feet           Y    =         4181196.21  meter
     Z    =       17405474.31                 Z    =         5305188.57
     XDOT =     -24077.281592                 XDOT =       -7338.755429
     YDOT =       1829.060487  feet/sec       YDOT =         557.497637  meter/sec
     ZDOT =        910.496843                 ZDOT =         277.519438
  
  
    The mean element set is posted at the UTC for which position is
    just north of the next ascending node relative to the above
    vector time
 
 
    TWO LINE MEAN ELEMENT SET
  
    ISS
    1 25544U 98067A   16093.73202652  .00016717  00000-0  10270-3 0  9137
    2 25544  51.6420  74.3801 0002551  15.4177 344.7053 15.54344936 33243
  
